STARLINK-11297 [DTC]    
1 61060U 24164L   25080.49873137 -.00000295  00000+0  24176-5 0  9998
2 61060  53.1590 252.5592 0000918  74.8066 285.3053 15.69702632 30816
STARLINK-11233 [DTC]    
1 61061U 24164M   25080.49383544 -.00002590  00000+0 -16546-4 0  9999
2 61061  53.1584 252.5261 0000865  79.1171 280.9944 15.69690078 30976
STARLINK-11236 [DTC]    
1 61062U 24164N   25079.78855303 -.00000853  00000+0 -21812-5 0  9990
2 61062  53.1589 255.9466 0001510  13.2249 346.8808 15.69711181 30700
STARLINK-32350          
1 61063U 24164P   25079.98288305  .00000257  00000+0  20808-4 0  9994
2 61063  53.1600 294.0362 0000990  82.9302 277.1811 15.30187862 30316
STARLINK-32378          
1 61064U 24164Q   25080.57387685  .00001963  00000+0  78384-4 0  9990
2 61064  53.1590 291.3285 0000910  73.6371 286.4730 15.30193059 30390
STARLINK-32321          
1 61065U 24164R   25079.86492066  .00001396  00000+0  59299-4 0  9995
2 61065  53.1602 294.7257 0001102 101.5583 258.5542 15.30176282 29300
STARLINK-32381          
1 61066U 24164S   25079.81016330  .00001339  00000+0  57351-4 0  9991
2 61066  53.1599 295.0916 0001248  86.2901 273.8242 15.30185739 30289
STARLINK-32385          
1 61068U 24164U   25079.86175342 -.00000407  00000+0 -16319-5 0  9994
2 61068  53.1605 294.7078 0001116  87.3936 272.7192 15.30185014 29307
STARLINK-32380          
1 61069U 24164V   25080.57705257  .00002576  00000+0  99098-4 0  9990
2 61069  53.1594 291.3518 0001578  80.7416 279.3763 15.30197245 30408
STARLINK-32375          
1 61070U 24164W   25079.86808502  .00000310  00000+0  22614-4 0  9993
2 61070  53.1598 294.7403 0001198  70.5594 289.5537 15.30184212 29305
STARLINK-11209 [DTC]    
1 61200U 24171A   25080.49995144  .00000752  00000+0  11070-4 0  9990
2 61200  53.1589 117.5624 0001336  69.8003 290.3159 15.69710489 29827
STARLINK-11257 [DTC]    
1 61201U 24171B   25080.36771176  .00001245  00000+0  15141-4 0  9995
2 61201  53.1575 118.1515 0001598  81.1440 278.9759 15.69707148 29816
STARLINK-11309 [DTC]    
1 61202U 24171C   25080.49014090 -.00002380  00000+0 -14789-4 0  9995
2 61202  53.1590 117.4937 0001210  84.2112 275.9044 15.69717285 29823
STARLINK-11292 [DTC]    
1 61203U 24171D   25080.35789497  .00000756  00000+0  11100-4 0  9998
2 61203  53.1592 118.0874 0001629  92.6911 267.4293 15.69713265 29801
STARLINK-11302 [DTC]    
1 61204U 24171E   25080.48033323 -.00002241  00000+0 -13637-4 0  9993
2 61204  53.1594 117.4273 0001432  75.7484 284.3693 15.69711809 29825
STARLINK-11277 [DTC]    
1 61205U 24171F   25080.08849948 -.00001656  00000+0 -88109-5 0  9994
2 61205  53.1589 119.2420 0000943 101.4100 258.7024 15.69718531 29767
STARLINK-11279 [DTC]    
1 61206U 24171G   25080.08360110 -.00002592  00000+0 -16548-4 0  9991
2 61206  53.1593 119.2038 0001170 136.4075 223.7035 15.69706099 29760
STARLINK-11091 [DTC]    
1 61207U 24171H   25080.47542671 -.00000279  00000+0  25584-5 0  9999
2 61207  53.1603 117.3878 0001523  80.0695 280.0495 15.69705189 29774
STARLINK-11291 [DTC]    
1 61208U 24171J   25080.39700887  .00007360  00000+0  65470-4 0  9990
2 61208  53.1592 117.6066 0001121  98.6109 261.5036 15.69740058 29817
STARLINK-11304 [DTC]    
1 61209U 24171K   25080.51946624  .00002994  00000+0  29565-4 0  9999
2 61209  53.1600 116.9533 0001389  81.2991 278.8184 15.69708131 29835
STARLINK-11307 [DTC]    
1 61210U 24171L   25080.38731037  .00001810  00000+0  19778-4 0  9997
2 61210  53.1592 118.2758 0001535  50.6172 309.4981 15.69740812 29800
STARLINK-11298 [DTC]    
1 61211U 24171M   25080.50975780  .00001454  00000+0  16863-4 0  9993
2 61211  53.1590 117.6149 0001628  64.2279 295.8906 15.69717116 29826
STARLINK-11310 [DTC]    
1 61212U 24171N   25080.37751297 -.00000481  00000+0  89286-6 0  9995
2 61212  53.1594 118.2049 0001454  77.8666 282.2515 15.69723701 29793
STARLINK-32386          
1 61213U 24171P   25080.20788759  .00000509  00000+0  29340-4 0  9994
2 61213  53.1603 163.9868 0001265 112.8389 247.2745 15.30178062 29162
STARLINK-32392          
1 61214U 24171Q   25080.22582981  .00000176  00000+0  18093-4 0  9999
2 61214  53.1595 164.1048 0001198  82.3450 277.7687 15.30177808 29150
STARLINK-32436          
1 61215U 24171R   25079.62109785 -.00003111  00000+0 -93010-4 0  9995
2 61215  53.1586 166.7328 0001214 129.9666 230.1442 15.30177417 28164
STARLINK-32425          
1 61216U 24171S   25080.51030482  .00005084  00000+0  18396-3 0  9995
2 61216  53.1613 163.0318 0001433 110.9503 249.1651 15.30143883 29194
STARLINK-32342          
1 61217U 24171T   25080.23848029  .00013586  00000+0  47038-3 0  9990
2 61217  53.1590 164.1850 0001792  72.7377 287.3820 15.30173986 29160
STARLINK-32423          
1 61218U 24171U   25080.50184657  .00002698  00000+0  10321-3 0  9998
2 61218  53.1599 162.9787 0001568  96.2844 263.8335 15.30196930 29205
STARLINK-32248          
1 61219U 24171V   25080.51979889  .00002940  00000+0  11140-3 0  9999
2 61219  53.1612 163.0911 0001616  88.1796 271.9390 15.30183712 29196
STARLINK-11300 [DTC]    
1 61243U 24175A   25080.18159373 -.00001049  00000+0 -37961-5 0  9993
2 61243  53.1594 358.9567 0001888 121.3000 238.8203 15.69694931 28896
STARLINK-11276 [DTC]    
1 61244U 24175B   25080.17668217  .00001000  00000+0  13114-4 0  9993
2 61244  53.1568 358.9329 0001170  79.6116 280.5034 15.69698978 28735
STARLINK-11280 [DTC]    
1 61245U 24175C   25079.97586064 -.00000339  00000+0  20584-5 0  9994
2 61245  53.1587 359.8182 0001056  75.1466 284.9669 15.69705051 28964
STARLINK-11308 [DTC]    
1 61246U 24175D   25079.78975676  .00002841  00000+0  28320-4 0  9999
2 61246  53.1580   0.7843 0001882  24.8398 335.2710 15.69697708 27781
STARLINK-11305 [DTC]    
1 61247U 24175E   25079.77994669  .00000057  00000+0  53327-5 0  9995
2 61247  53.1590   0.7144 0001295  68.3148 291.8008 15.69704685 28984
STARLINK-11317 [DTC]    
1 61248U 24175F   25079.96605157 -.00001345  00000+0 -62397-5 0  9998
2 61248  53.1597 359.7441 0001263  84.8873 275.2290 15.69710028 28800
STARLINK-11293 [DTC]    
1 61249U 24175G   25079.19711048  .00004188  00000+0  39426-4 0  9993
2 61249  53.1597   3.4778 0001007  62.4403 297.6718 15.69695739 27694
STARLINK-11334 [DTC]    
1 61250U 24175H   25079.19220620 -.00000776  00000+0 -15430-5 0  9997
2 61250  53.1581   3.4692 0001200  86.1469 273.9687 15.69712202 27691
STARLINK-11319 [DTC]    
1 61251U 24175J   25079.95143800 -.00001660  00000+0 -88491-5 0  9996
2 61251  53.1592   0.3761 0001310  68.2602 291.8556 15.69701250 29001
STARLINK-11318 [DTC]    
1 61252U 24175K   25079.94653500  .00001207  00000+0  14824-4 0  9992
2 61252  53.1593   0.3361 0000978 106.5379 253.5746 15.69691565 28681
STARLINK-11311 [DTC]    
1 61253U 24175L   25079.17759322 -.00000872  00000+0 -23378-5 0  9991
2 61253  53.1595   4.0761 0001459  92.2212 267.8973 15.69705667 28893
STARLINK-11306 [DTC]    
1 61254U 24175M   25080.00038782  .00002427  00000+0  24895-4 0  9996
2 61254  53.1592 359.9609 0001242  92.0929 268.0231 15.69699169 29011
STARLINK-11313 [DTC]    
1 61255U 24175N   25080.18648910  .00000662  00000+0  10329-4 0  9992
2 61255  53.1601 358.9863 0001248  76.6095 283.5062 15.69705776 28848
STARLINK-32431          
1 61256U 24175P   25080.27184015  .00000593  00000+0  32151-4 0  9994
2 61256  53.1626  35.6400 0001552 126.4657 233.6487 15.30193806 28545
STARLINK-32432          
1 61257U 24175Q   25080.14437440 -.00001056  00000+0 -23547-4 0  9990
2 61257  53.1622  36.2642 0001437 117.7061 242.4085 15.30196612 28529
STARLINK-32382          
1 61258U 24175R   25080.14755188 -.00001360  00000+0 -33814-4 0  9999
2 61258  53.1611  36.2865 0001135  39.4013 320.7070 15.30185690 28277
STARLINK-32435          
1 61259U 24175S   25080.15494809  .00000246  00000+0  20436-4 0  9997
2 61259  53.1622  36.3336 0001263  98.6587 261.4557 15.30174074 28487
STARLINK-32474          
1 61260U 24175T   25079.15515454 -.00000263  00000+0  32592-5 0  9994
2 61260  53.1612  40.7493 0002003 105.5297 254.5925 15.30201264 27179
STARLINK-32447          
1 61261U 24175U   25080.26869102  .00000324  00000+0  23061-4 0  9998
2 61261  53.1616  35.6117 0001149 127.5181 232.5924 15.30186309 28545
STARLINK-32446          
1 61262U 24175V   25080.15177828 -.00000983  00000+0 -21097-4 0  9994
2 61262  53.1614  36.3115 0001191  71.5176 288.5954 15.30180794 28523
STARLINK-32174          
1 61509U 24183A   25079.98603107  .00004780  00000+0  12945-3 0  9998
2 61509  53.1602 347.1558 0001143  75.5656 284.5476 15.39606249 25486
STARLINK-32139          
1 61510U 24183B   25080.12061155 -.00000275  00000+0  31251-5 0  9998
2 61510  53.1623 347.2904 0001819 159.4483 200.6596 15.39578197 25490
STARLINK-32140          
1 61511U 24183C   25079.97685261  .00018875  00000+0  48206-3 0  9990
2 61511  53.1613 347.8148 0000778 113.4002 246.7085 15.39532108 25380
STARLINK-32201          
1 61512U 24183D   25079.74461235 -.00000697  00000+0 -74644-5 0  9991
2 61512  53.1605 348.4880 0001016 154.6173 205.4882 15.39594244 25346
STARLINK-32030          
1 61513U 24183E   25080.50002315 -.00032812  00000+0 -81288-3 0  9992
2 61513  53.1597 345.5515 0000923  66.3821 213.9958 15.39656527 25548
STARLINK-31837          
1 61514U 24183F   25079.01616918  .00007978  00000+0  20946-3 0  9994
2 61514  53.1612 351.0536 0001129  65.6232 294.4891 15.39584712 25332
STARLINK-32136          
1 61515U 24183G   25079.15616403  .00003574  00000+0  99347-4 0  9999
2 61515  53.1597 351.9318 0000403  69.4974 290.6074 15.39594449 25330
STARLINK-32047          
1 61516U 24183H   25080.11511303 -.00000059  00000+0  85058-5 0  9992
2 61516  53.1625 345.8206 0000901  85.9640 274.1468 15.39584130 25427
STARLINK-31756          
1 61517U 24183J   25080.50002315 -.00035013  00000+0 -11447-2 0  9991
2 61517  53.1603 343.3904 0001265  64.2323 201.5565 15.31054039 25563
